[{"OBJECT_NAME":"LEMUR-2-GREENBERG","OBJECT_ID":"2017-042N","EPOCH":"2026-03-09T11:05:17.256192","MEAN_MOTION":15.27971352,"ECCENTRICITY":0.00091572,"INCLINATION":97.3781,"RA_OF_ASC_NODE":249.8007,"ARG_OF_PERICENTER":4.0119,"MEAN_ANOMALY":356.1192,"EPHEMERIS_TYPE":0,"CLASSIFICATION_TYPE":"U","NORAD_CAT_ID":42837,"ELEMENT_SET_NO":999,"REV_AT_EPOCH":47314,"BSTAR":0.00072539172,"MEAN_MOTION_DOT":0.00019778,"MEAN_MOTION_DDOT":0},{"OBJECT_NAME":"SCS-01 G","OBJECT_ID":"2025-100G","EPOCH":"2026-03-09T22:06:35.300160","MEAN_MOTION":15.25626619,"ECCENTRICITY":0.00115239,"INCLINATION":97.3761,"RA_OF_ASC_NODE":145.2582,"ARG_OF_PERICENTER":298.6971,"MEAN_ANOMALY":61.3108,"EPHEMERIS_TYPE":0,"CLASSIFICATION_TYPE":"U","NORAD_CAT_ID":63988,"ELEMENT_SET_NO":999,"REV_AT_EPOCH":4562,"BSTAR":0.00025501168,"MEAN_MOTION_DOT":6.423e-5,"MEAN_MOTION_DDOT":0}]
